#dP2020  6 11  0  0  0.00000000      97 __u+U IGS14 FIT  IAC
## 2109 345600.00000000   900.00000000 59011 0.0000000000000
+  123   C01C02C03C04C05C06C07C08C09C10C11C12C13C14C16C19C20
+        C21C22C23C24C25C26C27C28C29C30C32C33C34C35C36C37C38
+        C39C40C43C44C45C46C60E01E02E03E04E05E07E08E09E11E12
+        E13E14E15E18E19E21E24E25E26E27E30E31E33E36G01G02G03
+        G04G05G06G07G08G09G10G11G12G13G14G15G16G17G18G19G20
+        G21G22G24G25G26G27G28G29G30G31G32J01J02J03J07R01R02
+        R03R04R05R07R08R09R11R12R13R14R15R16R17R18R19R20R21
+        R22R23R24R26  0  0  0  0  0  0  0  0  0  0  0  0  0
++         0  0  0  0  0  0  0  0  0  0  0  0  0  0  0  0  0
++         0  0  0  0  0  0  0  0  0  0  0  0  0  0  0  0  0
++         0  0  0  0  0  0  0  0  0  0  0  0  0  0  0  0  0
++         0  0  0  0  0  0  0  0  0  0  0  0  0  0  0  0  0
++         0  0  0  0  0  0  0  0  0  0  0  0  0  0  0  0  0
++         0  0  0  0  0  0  0  0  0  0  0  0  0  0  0  0  0
++         0  0  0  0  0  0  0  0  0  0  0  0  0  0  0  0  0
++         0  0  0  0  0  0  0  0  0  0  0  0  0  0  0  0  0
%c M  cc GPS ccc cccc cccc cccc cccc ccccc ccccc ccccc ccccc
%c cc cc ccc ccc cccc cccc cccc cccc ccccc ccccc ccccc ccccc
%f  1.2500000  1.025000000  0.00000000000  0.000000000000000
%f  0.0000000  0.000000000  0.00000000000  0.000000000000000
%i    0    0    0    0      0      0      0      0         0
%i    0    0    0    0      0      0      0      0         0
/* INFORMATION & ANALYSIS CENTER (IAC)            FINAL DATA
/* S/V CLOCKS ARE ALIGNED TO GNSS TIME                      
/* G:C1WC2W R:C1PC2P E:C1XC5X C:C2IC6I J:C1CC2S             
/* PCV:IGS14_2101 OL/AL:FES2004  NONE     YN ORB:CoN CLK:CoN
*  2020 06 11 13 30  0.00000000
PC01 -34347.623129  24415.665177   -575.213311   -428.340945
PC02   4467.796981  41912.770793   1371.404495    289.664020
PC03 -14853.898717  39487.451019    547.997477    866.848351
PC04 -39613.037008  14462.064308   -366.108481   -171.931118
PC05  21911.765390  36024.793916   1082.693035   -438.382715
PC06  -9698.932134  35429.119364  21491.244573    751.210211
PC07 -16471.066952  21816.047458 -31996.255021     55.348650
PC08 -24674.018552  31552.497910  12730.304491   -305.222204
PC09   1162.318053  41984.792898   5872.163920    602.737971
PC10   1272.720898  26837.623477 -32261.906641   -265.216319
PC11   9341.930758 -23967.947257  10929.646997   -421.743186
PC12  15292.898570  -6809.737435  22357.960662    398.015832
PC13 -11845.494450  32146.689413  24496.128292    484.879965
PC14   8643.451112 -13432.617330 -22849.034583    519.280855
PC16  -6842.063893  37044.307716  19215.374083   -620.133319
PC19   1148.229344  18322.073242  21042.456918    440.829083
PC20 -16402.960174   7021.832043  21487.832706   -854.919045
PC21  24792.442365   8941.549364  -9109.359400   -514.252065
PC22  18382.527068  19252.834216   8328.108047   -787.532958
PC23 -10600.439965 -12669.719148  22498.372886   -855.821848
PC24  24071.094485 -13814.746959   2995.734513   -794.730676
PC25   8694.445203 -19073.942202  18426.510751   -648.200318
PC26  24534.364185  -1964.081785 -13182.384581    714.237438
PC27 -15459.704950  -4366.711446 -22836.560968    345.675014
PC28  -7966.422016 -22579.558318 -14339.831006   -216.059459
PC29  -3101.225040  27623.585768  -2495.969493    241.000027
PC30 -13377.321060  16522.004042 -18095.513072    330.432931
PC32 -24888.278006  -8715.259600   9172.632303   -880.074216
PC33  -1221.264239 -18323.003971 -21006.661703   -815.626098
PC34  13283.741600 -16898.787132  17773.507269   -801.390876
PC35   8657.801860  22449.042001  14159.518360   -801.784083
PC36  -9387.591959  18864.439570 -18274.390248   -844.040795
PC37 -24286.618920    850.812047  13731.959706   -850.027440
PC38 -20762.380681  33055.054164  15755.206435     82.899697
PC39  -2820.020527  38299.958283  17527.873108     17.429949
PC40  -5344.255549  21551.952487 -35830.050640     51.545221
PC43   3457.598892 -27540.697784   2749.550111   -233.877782
PC44  15672.820026   4143.583877  22708.607990   -267.812246
PC45  10580.562975  12525.764965 -22574.143443    153.308889
PC46 -23793.309046  14128.018196  -3492.127521    790.070948
PC60   7270.480547  41514.423219  -1244.475561 999999.999999
PE01  23103.040589 -10449.423808  15269.605692   -875.508202
PE02 -23030.198813  10498.321318 -15343.518362    139.687417
PE03 -12336.105729  12420.457039  23874.502395   -308.667822
PE04  -3268.182291 -25597.981193 -14490.314411   -543.742835
PE05 -20865.108871  -8183.016775  19347.181836   -372.520966
PE07  17137.607020  23863.515436  -3539.420448   -394.250308
PE08   3658.349162  25593.119876  14410.465396   6165.300916
PE09 -17344.741776 -23716.166951   3680.617836   6031.931618
PE11  -7904.600034 -16993.865935 -22915.074036   3394.566260
PE12   7871.980652 -27001.484339  -9194.905958   5760.455350
PE13   7708.397056  17156.192493  22859.125833    401.513722
PE14 -19912.339810   5477.687432 -25097.703778  -1045.843947
PE15  -7642.739324  27012.609324   9399.238027    863.882800
PE18  12582.036300 -10045.687351  17369.500119  -1146.610786
PE19  13577.509237 -10339.741455 -24173.386043      0.443790
PE21  29456.154844   1298.975984  -2587.999589   -603.990918
PE24 -18384.300533 -12787.632112  19336.785087   5408.139004
PE25 -29445.023082  -1387.348729   2720.574258   -511.986431
PE26  18828.918597  -3054.202064  22633.659378   3085.214331
PE27  18698.408263  12546.267975 -19210.650731    200.732620
PE30  -3501.705224  16387.938371 -24407.586097   3834.666367
PE31   2985.488964 -16377.424803  24480.916584   -472.833990
PE33  18515.409232 -20999.881802   9596.553191   -466.222688
PE36 -18545.965907   2787.183371 -22902.372192    548.350934
PG01  13391.366621 -21297.744339  -8182.907689      5.645659
PG02 -20504.564385  11505.402821 -11665.453820   -470.457054
PG03   6588.544399 -13833.385527 -21746.744440   -205.438578
PG04   1639.773807 -24291.562535 -10563.942789   -101.112258
PG05 -23847.889842   3000.950701  11378.808715    -14.441812
PG06 -17875.303214   -489.998762 -19600.192956   -286.966187
PG07  -2973.279904 -17260.823983  20134.384418   -302.020310
PG08   8833.728519 -16155.480777  19056.143697    -37.177553
PG09  -7610.696624 -25437.258621     43.078254   -234.352228
PG10  22393.571877  11763.339100   8575.673674   -368.190253
PG11  12075.596481 -22948.400891   5973.085477   -251.744931
PG12  -7599.120723  13111.825863 -22036.111023    107.325348
PG13 -13595.095389   8038.721216  21222.063655     17.444477
PG14  15576.979793   8267.001760 -19566.431276     -6.637919
PG15  -7468.773423  17601.713809  17965.658083   -224.989904
PG16  22952.399425  -1510.308651  13445.163147   -169.164820
PG17 -13660.751564 -17251.000963 -14486.410278    279.134761
PG18   1917.735876  17439.499094  19923.827267    217.084757
PG19 -15158.595142  -9481.841296 -19953.122919   -146.625090
PG20  13642.585037  14615.727757  17511.898509    527.535987
PG21  10788.297302  11557.501871  22131.066724     10.249615
PG22  15162.926345 -11348.891816 -18356.256209   -778.498700
PG24 -13379.214875  22018.353720  -5791.806176    -14.187668
PG25   3856.884292  16052.617989 -21097.864711     12.059817
PG26  26246.482264   4482.352871   1695.682971    223.413150
PG27  14021.372680  -4685.814246  21914.248916   -317.771704
PG28 -21811.357135 -13249.789269   7652.350517    709.578848
PG29   3042.314695  26139.720418  -3518.249086   -125.433776
PG30 -12720.314129  -9480.284951  21358.712122   -239.441090
PG31  19308.038527   -644.989467 -18460.197151    -48.425028
PG32  15486.387047  15555.785052 -14974.398907    298.021711
PJ01 -26533.195005  21483.114635  29828.281618   -288.972165
PJ02 -34988.315652  17402.487035 -11373.012278     -0.458273
PJ03 -19833.989541  29899.269812 -17613.732026     -3.979510
PJ07 -25367.655459  33686.123013    -13.343194      0.019650
PR01    848.805965 -13570.370425 -21578.382025     62.912487
PR02 -15348.776922 -19372.400671  -6150.443278    431.081909
PR03 -19619.911966 -11827.129893  11215.909145     16.601537
PR04 -12586.125583   2189.448975  22109.969312     52.371114
PR05   1487.239679  15054.748859  20559.502040     52.115689
PR07  19563.911029  11551.085303 -11595.653736    -37.460317
PR08  12663.590191  -2209.144430 -21975.699002    -52.803247
PR09  12593.873305   7116.296036 -20977.006905    137.476997
PR11  22815.588556  -9526.851190   6179.695983    -26.730069
PR12  10416.451502 -12564.307712  19636.426496    138.202488
PR13  -8664.365057  -8563.500120  22395.782173    -39.866180
PR14 -22591.714119    365.796792  11867.982937     52.170920
PR15 -23265.106598   9017.551810  -5286.985252    106.760929
PR16  -9409.722169  12869.707294 -19892.237158     -4.088576
PR17  -9784.069067  -4298.380778 -23159.869596    332.222554
PR18 -12024.053308  13571.677277 -17960.186871     38.469834
PR19  -8646.708542  23722.790575  -3627.625164    -97.460642
PR20   1036.053332  20459.701574  15230.969775   -413.996018
PR21  10008.120303   3206.532047  23236.567043   -130.665872
PR22  11836.033074 -15571.230827  16300.327980   4061.236751
PR23   5162.037515 -24746.290531  -3416.225646    311.470919
PR24  -1877.131458 -20065.324236 -15632.982335      2.274810
PR26  -1019.074282  22889.226149  11191.442705   -393.115744
EOF
